start=new Date('2023-05-25T00:00:00.000Z').valueOf();
sats=[{"DECAY_DATE":null,"TIME_SYSTEM":"UTC","OBJECT_TYPE":"PAYLOAD","MEAN_ANOMALY":"279.8773","EPHEMERIS_TYPE":"0","RA_OF_ASC_NODE":"1.8332","ECCENTRICITY":"0.00009170","TLE_LINE2":"2 52290  53.2168   1.8332 0000917  80.2322 279.8773 15.08844870 61607","GP_ID":"232411684","ELEMENT_SET_NO":"999","CLASSIFICATION_TYPE":"U","PERIAPSIS":"539.096","SEMIMAJOR_AXIS":"6917.866","APOAPSIS":"540.365","REV_AT_EPOCH":"6160","PERIOD":"95.437","INCLINATION":"53.2168","LAUNCH_DATE":"2022-04-21","MEAN_MOTION_DOT":"0.00005280","MEAN_ELEMENT_THEORY":"SGP4","BSTAR":"0.00034950000000","TLE_LINE1":"1 52290U 22041AF  23143.86871640  .00005280  00000-0  34950-3 0  9999","EPOCH":"2023-05-23T20:50:57.096960","COUNTRY_CODE":"US","SITE":"AFETR","FILE":"3915880","NORAD_CAT_ID":"52290","ARG_OF_PERICENTER":"80.2322","MEAN_MOTION":"15.08844870","REF_FRAME":"TEME","OBJECT_NAME":"STARLINK-3772","RCS_SIZE":"LARGE","CENTER_NAME":"EARTH","OBJECT_ID":"2022-041AF","MEAN_MOTION_DDOT":"0.0000000000000"},{"FILE":"3915880","ARG_OF_PERICENTER":"101.3827","NORAD_CAT_ID":"52291","MEAN_MOTION":"15.08841234","OBJECT_NAME":"STARLINK-3773","REF_FRAME":"TEME","RCS_SIZE":"LARGE","CENTER_NAME":"EARTH","OBJECT_ID":"2022-041AG","MEAN_MOTION_DDOT":"0.0000000000000","REV_AT_EPOCH":"6161","PERIOD":"95.437","MEAN_MOTION_DOT":"0.00004684","LAUNCH_DATE":"2022-04-21","INCLINATION":"53.2167","MEAN_ELEMENT_THEORY":"SGP4","BSTAR":"0.00031219000000","TLE_LINE1":"1 52291U 22041AG  23143.87975150  .00004684  00000-0  31219-3 0  9994","EPOCH":"2023-05-23T21:06:50.529600","COUNTRY_CODE":"US","SITE":"AFETR","ECCENTRICITY":"0.00007090","TLE_LINE2":"2 52291  53.2167   1.7166 0000709 101.3827 258.7245 15.08841234 61617","GP_ID":"232411337","ELEMENT_SET_NO":"999","CLASSIFICATION_TYPE":"U","PERIAPSIS":"539.251","SEMIMAJOR_AXIS":"6917.877","APOAPSIS":"540.232","DECAY_DATE":null,"TIME_SYSTEM":"UTC","MEAN_ANOMALY":"258.7245","OBJECT_TYPE":"PAYLOAD","EPHEMERIS_TYPE":"0","RA_OF_ASC_NODE":"1.7166"},{"MEAN_MOTION":"15.08835107","REF_FRAME":"TEME","OBJECT_NAME":"STARLINK-3753","FILE":"3916549","NORAD_CAT_ID":"52292","ARG_OF_PERICENTER":"106.5743","CENTER_NAME":"EARTH","OBJECT_ID":"2022-041AH","MEAN_MOTION_DDOT":"0.0000000000000","RCS_SIZE":"LARGE","PERIOD":"95.438","MEAN_MOTION_DOT":"-0.00000771","LAUNCH_DATE":"2022-04-21","INCLINATION":"53.2168","REV_AT_EPOCH":"6050","TLE_LINE1":"1 52292U 22041AH  23144.58630867 -.00000771  00000-0 -30392-4 0  9994","EPOCH":"2023-05-24T14:04:17.069088","MEAN_ELEMENT_THEORY":"SGP4","BSTAR":"-0.00003039200000","COUNTRY_CODE":"US","SITE":"AFETR","ECCENTRICITY":"0.00009450","GP_ID":"232449642","TLE_LINE2":"2 52292  53.2168 358.5394 0000945 106.5743 253.5353 15.08835107 60503","CLASSIFICATION_TYPE":"U","PERIAPSIS":"539.107","ELEMENT_SET_NO":"999","SEMIMAJOR_AXIS":"6917.895","APOAPSIS":"540.414","TIME_SYSTEM":"UTC","DECAY_DATE":null,"MEAN_ANOMALY":"253.5353","OBJECT_TYPE":"PAYLOAD","RA_OF_ASC_NODE":"358.5394","EPHEMERIS_TYPE":"0"},{"MEAN_ANOMALY":"251.3478","OBJECT_TYPE":"PAYLOAD","DECAY_DATE":null,"TIME_SYSTEM":"UTC","EPHEMERIS_TYPE":"0","RA_OF_ASC_NODE":"2.0685","ELEMENT_SET_NO":"999","PERIAPSIS":"538.987","CLASSIFICATION_TYPE":"U","GP_ID":"232414029","TLE_LINE2":"2 52293  53.2155   2.0685 0001068 108.7630 251.3478 15.08846256 61603","ECCENTRICITY":"0.00010680","APOAPSIS":"540.465","SEMIMAJOR_AXIS":"6917.861","MEAN_ELEMENT_THEORY":"SGP4","BSTAR":"0.00022505000000","EPOCH":"2023-05-23T19:16:56.161920","TLE_LINE1":"1 52293U 22041AJ  23143.80342780  .00003296  00000-0  22505-3 0  9992","REV_AT_EPOCH":"6160","LAUNCH_DATE":"2022-04-21","INCLINATION":"53.2155","MEAN_MOTION_DOT":"0.00003296","PERIOD":"95.437","SITE":"AFETR","COUNTRY_CODE":"US","ARG_OF_PERICENTER":"108.7630","NORAD_CAT_ID":"52293","FILE":"3915969","REF_FRAME":"TEME","OBJECT_NAME":"STARLINK-3771","MEAN_MOTION":"15.08846256","RCS_SIZE":"LARGE","MEAN_MOTION_DDOT":"0.0000000000000","OBJECT_ID":"2022-041AJ","CENTER_NAME":"EARTH"},{"TLE_LINE2":"2 52294  53.2166 358.2604 0000866  75.3762 284.7326 15.08844441 60518","GP_ID":"232450636","ECCENTRICITY":"0.00008660","ELEMENT_SET_NO":"999","PERIAPSIS":"539.133","CLASSIFICATION_TYPE":"U","APOAPSIS":"540.331","SEMIMAJOR_AXIS":"6917.867","TIME_SYSTEM":"UTC","DECAY_DATE":null,"OBJECT_TYPE":"PAYLOAD","MEAN_ANOMALY":"284.7326","EPHEMERIS_TYPE":"0","RA_OF_ASC_NODE":"358.2604","NORAD_CAT_ID":"52294","ARG_OF_PERICENTER":"75.3762","FILE":"3916549","OBJECT_NAME":"STARLINK-3777","REF_FRAME":"TEME","MEAN_MOTION":"15.08844441","RCS_SIZE":"MEDIUM","OBJECT_ID":"2022-041AK","MEAN_MOTION_DDOT":"0.0000000000000","CENTER_NAME":"EARTH","REV_AT_EPOCH":"6051","LAUNCH_DATE":"2022-04-21","MEAN_MOTION_DOT":"0.00003540","INCLINATION":"53.2166","PERIOD":"95.437","BSTAR":"0.00024038000000","MEAN_ELEMENT_THEORY":"SGP4","EPOCH":"2023-05-24T15:34:22.182240","TLE_LINE1":"1 52294U 22041AK  23144.64886785  .00003540  00000-0  24038-3 0  9999","COUNTRY_CODE":"US","SITE":"AFETR"},{"RCS_SIZE":"LARGE","CENTER_NAME":"EARTH","OBJECT_ID":"2022-041AL","MEAN_MOTION_DDOT":"0.0000000000000","FILE":"3916549","NORAD_CAT_ID":"52295","ARG_OF_PERICENTER":"73.3503","MEAN_MOTION":"15.08849795","OBJECT_NAME":"STARLINK-3765","REF_FRAME":"TEME","SITE":"AFETR","COUNTRY_CODE":"US","MEAN_ELEMENT_THEORY":"SGP4","BSTAR":"0.00018202000000","TLE_LINE1":"1 52295U 22041AL  23144.59366683  .00002611  00000-0  18202-3 0  9998","EPOCH":"2023-05-24T14:14:52.814112","REV_AT_EPOCH":"6050","PERIOD":"95.437","INCLINATION":"53.2192","LAUNCH_DATE":"2022-04-21","MEAN_MOTION_DOT":"0.00002611","SEMIMAJOR_AXIS":"6917.850","APOAPSIS":"540.608","ELEMENT_SET_NO":"999","CLASSIFICATION_TYPE":"U","PERIAPSIS":"538.823","ECCENTRICITY":"0.00012900","GP_ID":"232450887","TLE_LINE2":"2 52295  53.2192 358.5120 0001290  73.3503 286.7631 15.08849795 60504","EPHEMERIS_TYPE":"0","RA_OF_ASC_NODE":"358.5120","OBJECT_TYPE":"PAYLOAD","MEAN_ANOMALY":"286.7631","TIME_SYSTEM":"UTC","DECAY_DATE":null},{"OBJECT_NAME":"STARLINK-3766","REF_FRAME":"TEME","MEAN_MOTION":"15.08838983","NORAD_CAT_ID":"52296","ARG_OF_PERICENTER":"82.7045","FILE":"3916549","MEAN_MOTION_DDOT":"0.0000000000000","OBJECT_ID":"2022-041AM","CENTER_NAME":"EARTH","RCS_SIZE":"LARGE","LAUNCH_DATE":"2022-04-21","INCLINATION":"53.2162","MEAN_MOTION_DOT":"-0.00000390","PERIOD":"95.438","REV_AT_EPOCH":"6051","EPOCH":"2023-05-24T15:18:28.367712","TLE_LINE1":"1 52296U 22041AM  23144.63782833 -.00000390  00000-0 -64254-5 0  9997","BSTAR":"-0.00000642540000","MEAN_ELEMENT_THEORY":"SGP4","COUNTRY_CODE":"US","SITE":"AFETR","GP_ID":"232450143","TLE_LINE2":"2 52296  53.2162 358.3080 0001730  82.7045 277.4144 15.08838983 60513","ECCENTRICITY":"0.00017300","PERIAPSIS":"538.552","CLASSIFICATION_TYPE":"U","ELEMENT_SET_NO":"999","APOAPSIS":"540.945","SEMIMAJOR_AXIS":"6917.883","TIME_SYSTEM":"UTC","DECAY_DATE":null,"MEAN_ANOMALY":"277.4144","OBJECT_TYPE":"PAYLOAD","RA_OF_ASC_NODE":"358.3080","EPHEMERIS_TYPE":"0"},{"REF_FRAME":"TEME","OBJECT_NAME":"STARLINK-3758","MEAN_MOTION":"15.08846946","ARG_OF_PERICENTER":"92.4788","NORAD_CAT_ID":"52297","FILE":"3916549","MEAN_MOTION_DDOT":"0.0000000000000","OBJECT_ID":"2022-041AN","CENTER_NAME":"EARTH","RCS_SIZE":"LARGE","EPOCH":"2023-05-24T14:09:34.811136","TLE_LINE1":"1 52297U 22041AN  23144.58998624  .00000316  00000-0  37950-4 0  9997","MEAN_ELEMENT_THEORY":"SGP4","BSTAR":"0.00003795000000","LAUNCH_DATE":"2022-04-21","INCLINATION":"53.2160","MEAN_MOTION_DOT":"0.00000316","PERIOD":"95.437","REV_AT_EPOCH":"6050","SITE":"AFETR","COUNTRY_CODE":"US","PERIAPSIS":"539.066","CLASSIFICATION_TYPE":"U","ELEMENT_SET_NO":"999","TLE_LINE2":"2 52297  53.2160 358.5254 0000952  92.4788 267.6313 15.08846946 60500","GP_ID":"232450391","ECCENTRICITY":"0.00009520","APOAPSIS":"540.383","SEMIMAJOR_AXIS":"6917.859","MEAN_ANOMALY":"267.6313","OBJECT_TYPE":"PAYLOAD","DECAY_DATE":null,"TIME_SYSTEM":"UTC","RA_OF_ASC_NODE":"358.5254","EPHEMERIS_TYPE":"0"},{"APOAPSIS":"540.392","SEMIMAJOR_AXIS":"6917.872","ELEMENT_SET_NO":"999","PERIAPSIS":"539.082","CLASSIFICATION_TYPE":"U","TLE_LINE2":"2 52298  53.2173 358.3310 0000947  96.3638 263.7462 15.08842781 60513","GP_ID":"232451137","ECCENTRICITY":"0.00009470","EPHEMERIS_TYPE":"0","RA_OF_ASC_NODE":"358.3310","OBJECT_TYPE":"PAYLOAD","MEAN_ANOMALY":"263.7462","DECAY_DATE":null,"TIME_SYSTEM":"UTC","RCS_SIZE":"LARGE","MEAN_MOTION_DDOT":"0.0000000000000","OBJECT_ID":"2022-041AP","CENTER_NAME":"EARTH","NORAD_CAT_ID":"52298","ARG_OF_PERICENTER":"96.3638","FILE":"3916549","OBJECT_NAME":"STARLINK-3760","REF_FRAME":"TEME","MEAN_MOTION":"15.08842781","SITE":"AFETR","COUNTRY_CODE":"US","MEAN_ELEMENT_THEORY":"SGP4","BSTAR":"0.00008757100000","EPOCH":"2023-05-24T15:14:33.170496","TLE_LINE1":"1 52298U 22041AP  23144.63510614  .00001106  00000-0  87571-4 0  9995","REV_AT_EPOCH":"6051","LAUNCH_DATE":"2022-04-21","INCLINATION":"53.2173","MEAN_MOTION_DOT":"0.00001106","PERIOD":"95.437"},{"EPHEMERIS_TYPE":"0","RA_OF_ASC_NODE":"358.2932","TIME_SYSTEM":"UTC","DECAY_DATE":null,"OBJECT_TYPE":"PAYLOAD","MEAN_ANOMALY":"277.9132","APOAPSIS":"540.448","SEMIMAJOR_AXIS":"6917.884","TLE_LINE2":"2 52299  53.2170 358.2932 0001011  82.1975 277.9132 15.08838805 60513","GP_ID":"232451388","ECCENTRICITY":"0.00010110","ELEMENT_SET_NO":"999","PERIAPSIS":"539.050","CLASSIFICATION_TYPE":"U","COUNTRY_CODE":"US","SITE":"AFETR","REV_AT_EPOCH":"6051","LAUNCH_DATE":"2022-04-21","MEAN_MOTION_DOT":"0.00000645","INCLINATION":"53.2170","PERIOD":"95.438","BSTAR":"0.00005858700000","MEAN_ELEMENT_THEORY":"SGP4","EPOCH":"2023-05-24T15:23:46.263552","TLE_LINE1":"1 52299U 22041AQ  23144.64150768  .00000645  00000-0  58587-4 0  9999","RCS_SIZE":"LARGE","MEAN_MOTION_DDOT":"0.0000000000000","OBJECT_ID":"2022-041AQ","CENTER_NAME":"EARTH","ARG_OF_PERICENTER":"82.1975","NORAD_CAT_ID":"52299","FILE":"3916549","REF_FRAME":"TEME","OBJECT_NAME":"STARLINK-3759","MEAN_MOTION":"15.08838805"}];
